{"type": "FeatureCollection", "features": [ {"type": "Feature", "properties": {"norad_id": 33917, "name": "COSMOS 2251 DEB", "group": "cosmos-2251-debris", "lat": 21.62888966044798, "lon": 109.2638824688447, "alt_km": 1245.5000424242144, "timestamp": "2025-12-24T16:52:41.930388+00:00", "meta": {"OBJECT_NAME": "COSMOS 2251 DEB", "OBJECT_ID": "1993-036DW", "EPOCH": "2025-12-24T00:58:53.208768", "MEAN_MOTION": 13.69383777, "ECCENTRICITY": 0.03311761, "INCLINATION": 74.1073, "RA_OF_ASC_NODE": 103.8634, "ARG_OF_PERICENTER": 202.3577, "MEAN_ANOMALY": 156.2823, "EPHEMERIS_TYPE": 0, "CLASSIFICATION_TYPE": "U", "NORAD_CAT_ID": 33917, "ELEMENT_SET_NO": 999, "REV_AT_EPOCH": 83888, "BSTAR": 0.00089838854, "MEAN_MOTION_DOT": 1.126e-05, "MEAN_MOTION_DDOT": 0}, "tle": {"line1": "1 33917U 93036DW  25358.04089362  .00001126  00000+0  89839-3 0  9998", "line2": "2 33917  74.1073 103.8634 0331176 202.3577 156.2823 13.69383777838885"}}, "geometry": {"type": "Point", "coordinates": [109.2638824688447, 21.62888966044798]}}, {"type": "Feature", "properties": {"norad_id": 33920, "name": "COSMOS 2251 DEB", "group": "cosmos-2251-debris", "lat": -24.53529255558072, "lon": -91.80290048620267, "alt_km": 687.6882105382474, "timestamp": "2025-12-24T16:52:41.930399+00:00", "meta": {"OBJECT_NAME": "COSMOS 2251 DEB", "OBJECT_ID": "1993-036DZ", "EPOCH": "2025-12-24T03:49:29.683776", "MEAN_MOTION": 14.58442964, "ECCENTRICITY": 0.00377584, "INCLINATION": 74.0614, "RA_OF_ASC_NODE": 276.7258, "ARG_OF_PERICENTER": 281.5069, "MEAN_ANOMALY": 78.1857, "EPHEMERIS_TYPE": 0, "CLASSIFICATION_TYPE": "U", "NORAD_CAT_ID": 33920, "ELEMENT_SET_NO": 999, "REV_AT_EPOCH": 88281, "BSTAR": 0.001697106, "MEAN_MOTION_DOT": 7.93e-05, "MEAN_MOTION_DDOT": 0}, "tle": {"line1": "1 33920U 93036DZ  25358.15937134  .00007930  00000+0  16971-2 0  9998", "line2": "2 33920  74.0614 276.7258 0037758 281.5069  78.1857 14.58442964882819"}}, "geometry": {"type": "Point", "coordinates": [-91.80290048620267, -24.53529255558072]}}, {"type": "Feature", "properties": {"norad_id": 33922, "name": "COSMOS 2251 DEB", "group": "cosmos-2251-debris", "lat": 73.08706765545078, "lon": -124.84258372781994, "alt_km": 732.1373344589329, "timestamp": "2025-12-24T16:52:41.930410+00:00", "meta": {"OBJECT_NAME": "COSMOS 2251 DEB", "OBJECT_ID": "1993-036EB", "EPOCH": "2025-12-24T02:03:12.256992", "MEAN_MOTION": 14.4954789, "ECCENTRICITY": 0.0023131, "INCLINATION": 74.0469, "RA_OF_ASC_NODE": 126.4894, "ARG_OF_PERICENTER": 235.9235, "MEAN_ANOMALY": 237.8017, "EPHEMERIS_TYPE": 0, "CLASSIFICATION_TYPE": "U", "NORAD_CAT_ID": 33922, "ELEMENT_SET_NO": 999, "REV_AT_EPOCH": 88742, "BSTAR": 0.00049623955, "MEAN_MOTION_DOT": 1.883e-05, "MEAN_MOTION_DDOT": 0}, "tle": {"line1": "1 33922U 93036EB  25358.08555853  .00001883  00000+0  49624-3 0  9999", "line2": "2 33922  74.0469 126.4894 0023131 235.9235 237.8017 14.49547890887422"}}, "geometry": {"type": "Point", "coordinates": [-124.84258372781994, 73.08706765545078]}}, {"type": "Feature", "properties": {"norad_id": 33924, "name": "COSMOS 2251 DEB", "group": "cosmos-2251-debris", "lat": 68.66460949378546, "lon": -61.40178740920597, "alt_km": 1325.9358533276618, "timestamp": "2025-12-24T16:52:41.930421+00:00", "meta": {"OBJECT_NAME": "COSMOS 2251 DEB", "OBJECT_ID": "1993-036ED", "EPOCH": "2025-12-24T04:02:48.513984", "MEAN_MOTION": 13.50238641, "ECCENTRICITY": 0.04038151, "INCLINATION": 73.9131, "RA_OF_ASC_NODE": 251.8306, "ARG_OF_PERICENTER": 285.266, "MEAN_ANOMALY": 70.4152, "EPHEMERIS_TYPE": 0, "CLASSIFICATION_TYPE": "U", "NORAD_CAT_ID": 33924, "ELEMENT_SET_NO": 999, "REV_AT_EPOCH": 82893, "BSTAR": 0.00045397577, "MEAN_MOTION_DOT": 4.57e-06, "MEAN_MOTION_DDOT": 0}, "tle": {"line1": "1 33924U 93036ED  25358.16861706  .00000457  00000+0  45398-3 0  9997", "line2": "2 33924  73.9131 251.8306 0403815 285.2660  70.4152 13.50238641828934"}}, "geometry": {"type": "Point", "coordinates": [-61.40178740920597, 68.66460949378546]}}, {"type": "Feature", "properties": {"norad_id": 33928, "name": "COSMOS 2251 DEB", "group": "cosmos-2251-debris", "lat": -27.000649268218005, "lon": -141.51072218520713, "alt_km": 756.8908726416239, "timestamp": "2025-12-24T16:52:41.930432+00:00", "meta": {"OBJECT_NAME": "COSMOS 2251 DEB", "OBJECT_ID": "1993-036EH", "EPOCH": "2025-12-24T04:18:12.780576", "MEAN_MOTION": 14.47425087, "ECCENTRICITY": 0.00619966, "INCLINATION": 73.9253, "RA_OF_ASC_NODE": 31.0267, "ARG_OF_PERICENTER": 322.8172, "MEAN_ANOMALY": 36.8699, "EPHEMERIS_TYPE": 0, "CLASSIFICATION_TYPE": "U", "NORAD_CAT_ID": 33928, "ELEMENT_SET_NO": 999, "REV_AT_EPOCH": 88810, "BSTAR": 0.00025015989, "MEAN_MOTION_DOT": 9.11e-06, "MEAN_MOTION_DDOT": 0}, "tle": {"line1": "1 33928U 93036EH  25358.17931459  .00000911  00000+0  25016-3 0  9995", "line2": "2 33928  73.9253  31.0267 0061996 322.8172  36.8699 14.47425087888109"}}, "geometry": {"type": "Point", "coordinates": [-141.51072218520713, -27.000649268218005]}}, {"type": "Feature", "properties": {"norad_id": 33932, "name": "COSMOS 2251 DEB", "group": "cosmos-2251-debris", "lat": -25.052750051464724, "lon": -73.83766844569935, "alt_km": 746.2359844040711, "timestamp": "2025-12-24T16:52:41.930442+00:00", "meta": {"OBJECT_NAME": "COSMOS 2251 DEB", "OBJECT_ID": "1993-036EM", "EPOCH": "2025-12-24T03:38:55.657248", "MEAN_MOTION": 14.38789901, "ECCENTRICITY": 0.00358998, "INCLINATION": 74.0343, "RA_OF_ASC_NODE": 294.8688, "ARG_OF_PERICENTER": 8.2905, "MEAN_ANOMALY": 351.8834, "EPHEMERIS_TYPE": 0, "CLASSIFICATION_TYPE": "U", "NORAD_CAT_ID": 33932, "ELEMENT_SET_NO": 999, "REV_AT_EPOCH": 88162, "BSTAR": 0.00044962915, "MEAN_MOTION_DOT": 1.366e-05, "MEAN_MOTION_DDOT": 0}, "tle": {"line1": "1 33932U 93036EM  25358.15203307  .00001366  00000+0  44963-3 0  9999", "line2": "2 33932  74.0343 294.8688 0035899   8.2905 351.8834 14.38789901881623"}}, "geometry": {"type": "Point", "coordinates": [-73.83766844569935, -25.052750051464724]}}, {"type": "Feature", "properties": {"norad_id": 33933, "name": "COSMOS 2251 DEB", "group": "cosmos-2251-debris", "lat": -43.27018340197463, "lon": 22.75618310248531, "alt_km": 784.7178858881116, "timestamp": "2025-12-24T16:52:41.930454+00:00", "meta": {"OBJECT_NAME": "COSMOS 2251 DEB", "OBJECT_ID": "1993-036EN", "EPOCH": "2025-12-23T19:18:54.872064", "MEAN_MOTION": 14.33504975, "ECCENTRICITY": 0.00709863, "INCLINATION": 74.0889, "RA_OF_ASC_NODE": 39.9697, "ARG_OF_PERICENTER": 45.0777, "MEAN_ANOMALY": 315.6104, "EPHEMERIS_TYPE": 0, "CLASSIFICATION_TYPE": "U", "NORAD_CAT_ID": 33933, "ELEMENT_SET_NO": 999, "REV_AT_EPOCH": 87943, "BSTAR": 0.00024260297, "MEAN_MOTION_DOT": 6.65e-06, "MEAN_MOTION_DDOT": 0}, "tle": {"line1": "1 33933U 93036EN  25357.80480176  .00000665  00000+0  24260-3 0  9991", "line2": "2 33933  74.0889  39.9697 0070986  45.0777 315.6104 14.33504975879434"}}, "geometry": {"type": "Point", "coordinates": [22.75618310248531, -43.27018340197463]}}, {"type": "Feature", "properties": {"norad_id": 33934, "name": "COSMOS 2251 DEB", "group": "cosmos-2251-debris", "lat": 72.9700574121157, "lon": -171.3581214040682, "alt_km": 691.1991119355635, "timestamp": "2025-12-24T16:52:41.930464+00:00", "meta": {"OBJECT_NAME": "COSMOS 2251 DEB", "OBJECT_ID": "1993-036EP", "EPOCH": "2025-12-24T04:55:16.395168", "MEAN_MOTION": 14.59198034, "ECCENTRICITY": 0.00151673, "INCLINATION": 74.038, "RA_OF_ASC_NODE": 78.7264, "ARG_OF_PERICENTER": 202.2762, "MEAN_ANOMALY": 157.7746, "EPHEMERIS_TYPE": 0, "CLASSIFICATION_TYPE": "U", "NORAD_CAT_ID": 33934, "ELEMENT_SET_NO": 999, "REV_AT_EPOCH": 88906, "BSTAR": 0.0008903667, "MEAN_MOTION_DOT": 4.178e-05, "MEAN_MOTION_DDOT": 0}, "tle": {"line1": "1 33934U 93036EP  25358.20505087  .00004178  00000+0  89037-3 0  9992", "line2": "2 33934  74.0380  78.7264 0015167 202.2762 157.7746 14.59198034889063"}}, "geometry": {"type": "Point", "coordinates": [-171.3581214040682, 72.9700574121157]}}, {"type": "Feature", "properties": {"norad_id": 33936, "name": "COSMOS 2251 DEB", "group": "cosmos-2251-debris", "lat": 67.04784224072667, "lon": 57.20844636106412, "alt_km": 686.4029465382373, "timestamp": "2025-12-24T16:52:41.930475+00:00", "meta": {"OBJECT_NAME": "COSMOS 2251 DEB", "OBJECT_ID": "1993-036ER", "EPOCH": "2025-12-23T19:10:08.490432", "MEAN_MOTION": 14.60333945, "ECCENTRICITY": 0.00267842, "INCLINATION": 74.0179, "RA_OF_ASC_NODE": 16.3464, "ARG_OF_PERICENTER": 169.1135, "MEAN_ANOMALY": 191.0617, "EPHEMERIS_TYPE": 0, "CLASSIFICATION_TYPE": "U", "NORAD_CAT_ID": 33936, "ELEMENT_SET_NO": 999, "REV_AT_EPOCH": 89051, "BSTAR": 0.00060550854, "MEAN_MOTION_DOT": 2.913e-05, "MEAN_MOTION_DDOT": 0}, "tle": {"line1": "1 33936U 93036ER  25357.79870938  .00002913  00000+0  60551-3 0  9992", "line2": "2 33936  74.0179  16.3464 0026784 169.1135 191.0617 14.60333945890517"}}, "geometry": {"type": "Point", "coordinates": [57.20844636106412, 67.04784224072667]}}, {"type": "Feature", "properties": {"norad_id": 33938, "name": "COSMOS 2251 DEB", "group": "cosmos-2251-debris", "lat": 61.89773340166269, "lon": -142.76339441781298, "alt_km": 740.9281920003414, "timestamp": "2025-12-24T16:52:41.930486+00:00", "meta": {"OBJECT_NAME": "COSMOS 2251 DEB", "OBJECT_ID": "1993-036ET", "EPOCH": "2025-12-24T00:44:03.903072", "MEAN_MOTION": 14.46826184, "ECCENTRICITY": 0.00168018, "INCLINATION": 74.0437, "RA_OF_ASC_NODE": 186.0954, "ARG_OF_PERICENTER": 267.3286, "MEAN_ANOMALY": 257.0228, "EPHEMERIS_TYPE": 0, "CLASSIFICATION_TYPE": "U", "NORAD_CAT_ID": 33938, "ELEMENT_SET_NO": 999, "REV_AT_EPOCH": 88563, "BSTAR": 0.0004070942, "MEAN_MOTION_DOT": 1.451e-05, "MEAN_MOTION_DDOT": 0}, "tle": {"line1": "1 33938U 93036ET  25358.03060073  .00001451  00000+0  40709-3 0  9992", "line2": "2 33938  74.0437 186.0954 0016801 267.3286 257.0228 14.46826184885636"}}, "geometry": {"type": "Point", "coordinates": [-142.76339441781298, 61.89773340166269]}}]}